[{"OBJECT_NAME":"IRIDIUM 108","OBJECT_ID":"2017-003H","EPOCH":"2026-03-09T14:45:22.333248","MEAN_MOTION":14.34217052,"ECCENTRICITY":0.000234,"INCLINATION":86.3916,"RA_OF_ASC_NODE":98.4141,"ARG_OF_PERICENTER":95.4169,"MEAN_ANOMALY":264.7294,"EPHEMERIS_TYPE":0,"CLASSIFICATION_TYPE":"U","NORAD_CAT_ID":41924,"ELEMENT_SET_NO":999,"REV_AT_EPOCH":48083,"BSTAR":9.2737e-7,"MEAN_MOTION_DOT":2.2e-7,"MEAN_MOTION_DDOT":0},{"OBJECT_NAME":"COSMOS 1867 COOLANT","OBJECT_ID":"1987-060L","EPOCH":"2026-03-09T13:58:08.634432","MEAN_MOTION":14.34640862,"ECCENTRICITY":0.0015744,"INCLINATION":65.0091,"RA_OF_ASC_NODE":283.0861,"ARG_OF_PERICENTER":280.8958,"MEAN_ANOMALY":79.0356,"EPHEMERIS_TYPE":0,"CLASSIFICATION_TYPE":"U","NORAD_CAT_ID":39643,"ELEMENT_SET_NO":999,"REV_AT_EPOCH":62348,"BSTAR":0.00018972,"MEAN_MOTION_DOT":4.37e-6,"MEAN_MOTION_DDOT":0}]
